{
  "type": "FeatureCollection",
  "features": [
    {
      "type": "Feature",
      "properties": {
        "norad_id": 43823,
        "name": "GEO-KOMPSAT-2A",
        "group": "weather",
        "lat": 0.00016488816726303,
        "lon": -63.682130339230845,
        "alt_km": 35787.09322647418,
        "timestamp": "2025-12-12T05:47:28.414799+00:00",
        "meta_object_name": "GEO-KOMPSAT-2A",
        "meta_object_id": "2018-100A",
        "meta_epoch": "2025-12-11T22:40:52.372704",
        "meta_mean_motion": 1.00274281,
        "meta_eccentricity": 4.194e-05,
        "meta_inclination": 0.0431,
        "meta_ra_of_asc_node": 144.5887,
        "meta_arg_of_pericenter": 351.1168,
        "meta_mean_anomaly": 53.6713,
        "meta_ephemeris_type": 0,
        "meta_classification_type": "U",
        "meta_norad_cat_id": 43823,
        "meta_element_set_no": 999,
        "meta_rev_at_epoch": 2575,
        "meta_bstar": 0,
        "meta_mean_motion_dot": -3.35e-06,
        "meta_mean_motion_ddot": 0,
        "tle_line1": "1 43823U 18100A   25345.94505061 -.00000335  00000+0  00000+0 0  9999",
        "tle_line2": "2 43823   0.0431 144.5887 0000419 351.1168  53.6713  1.00274281 25755"
      },
      "geometry": {
        "type": "Point",
        "coordinates": [
          -63.682130339230845,
          0.00016488816726303
        ]
      }
    },
    {
      "type": "Feature",
      "properties": {
        "norad_id": 44387,
        "name": "METEOR-M2 2",
        "group": "weather",
        "lat": -19.159259088990297,
        "lon": -30.91634569223697,
        "alt_km": 816.7701516485386,
        "timestamp": "2025-12-12T05:47:28.414811+00:00",
        "meta_object_name": "METEOR-M2 2",
        "meta_object_id": "2019-038A",
        "meta_epoch": "2025-12-12T00:49:26.880960",
        "meta_mean_motion": 14.24290757,
        "meta_eccentricity": 0.00012134,
        "meta_inclination": 98.8975,
        "meta_ra_of_asc_node": 325.7542,
        "meta_arg_of_pericenter": 148.8489,
        "meta_mean_anomaly": 211.2761,
        "meta_ephemeris_type": 0,
        "meta_classification_type": "U",
        "meta_norad_cat_id": 44387,
        "meta_element_set_no": 999,
        "meta_rev_at_epoch": 33465,
        "meta_bstar": 0.00010464126,
        "meta_mean_motion_dot": 1.96e-06,
        "meta_mean_motion_ddot": 0,
        "tle_line1": "1 44387U 19038A   25346.03433890  .00000196  00000+0  10464-3 0  9990",
        "tle_line2": "2 44387  98.8975 325.7542 0001213 148.8489 211.2761 14.24290757334653"
      },
      "geometry": {
        "type": "Point",
        "coordinates": [
          -30.91634569223697,
          -19.159259088990297
        ]
      }
    },
    {
      "type": "Feature",
      "properties": {
        "norad_id": 47719,
        "name": "ARKTIKA-M 1",
        "group": "weather",
        "lat": 60.76042704084301,
        "lon": 148.64167465036252,
        "alt_km": 37147.88498909629,
        "timestamp": "2025-12-12T05:47:28.414826+00:00",
        "meta_object_name": "ARKTIKA-M 1",
        "meta_object_id": "2021-016A",
        "meta_epoch": "2025-12-09T14:03:23.859648",
        "meta_mean_motion": 2.00631311,
        "meta_eccentricity": 0.7202538,
        "meta_inclination": 63.1769,
        "meta_ra_of_asc_node": 84.4506,
        "meta_arg_of_pericenter": 269.1116,
        "meta_mean_anomaly": 15.6235,
        "meta_ephemeris_type": 0,
        "meta_classification_type": "U",
        "meta_norad_cat_id": 47719,
        "meta_element_set_no": 999,
        "meta_rev_at_epoch": 3498,
        "meta_bstar": 0,
        "meta_mean_motion_dot": -6.1e-07,
        "meta_mean_motion_ddot": 0,
        "tle_line1": "1 47719U 21016A   25343.58569282 -.00000061  00000+0  00000+0 0  9996",
        "tle_line2": "2 47719  63.1769  84.4506 7202538 269.1116  15.6235  2.00631311 34985"
      },
      "geometry": {
        "type": "Point",
        "coordinates": [
          148.64167465036252,
          60.76042704084301
        ]
      }
    },
    {
      "type": "Feature",
      "properties": {
        "norad_id": 49008,
        "name": "FENGYUN 3E",
        "group": "weather",
        "lat": -51.303870758260764,
        "lon": -2.1496212490064868,
        "alt_km": 832.3163556779409,
        "timestamp": "2025-12-12T05:47:28.414839+00:00",
        "meta_object_name": "FENGYUN 3E",
        "meta_object_id": "2021-062A",
        "meta_epoch": "2025-12-11T23:16:17.314176",
        "meta_mean_motion": 14.19880341,
        "meta_eccentricity": 5.714e-05,
        "meta_inclination": 98.748,
        "meta_ra_of_asc_node": 346.4995,
        "meta_arg_of_pericenter": 273.4442,
        "meta_mean_anomaly": 86.6669,
        "meta_ephemeris_type": 0,
        "meta_classification_type": "U",
        "meta_norad_cat_id": 49008,
        "meta_element_set_no": 999,
        "meta_rev_at_epoch": 23001,
        "meta_bstar": 9.9020761e-05,
        "meta_mean_motion_dot": 1.66e-06,
        "meta_mean_motion_ddot": 0,
        "tle_line1": "1 49008U 21062A   25345.96964484  .00000166  00000+0  99021-4 0  9998",
        "tle_line2": "2 49008  98.7480 346.4995 0000571 273.4442  86.6669 14.19880341230014"
      },
      "geometry": {
        "type": "Point",
        "coordinates": [
          -2.1496212490064868,
          -51.303870758260764
        ]
      }
    },
    {
      "type": "Feature",
      "properties": {
        "norad_id": 51850,
        "name": "GOES 18",
        "group": "weather",
        "lat": 0.0018544482300361204,
        "lon": 31.061695168082803,
        "alt_km": 35785.39498565351,
        "timestamp": "2025-12-12T05:47:28.414851+00:00",
        "meta_object_name": "GOES 18",
        "meta_object_id": "2022-021A",
        "meta_epoch": "2025-12-11T23:07:59.310624",
        "meta_mean_motion": 1.00272382,
        "meta_eccentricity": 6.879e-05,
        "meta_inclination": 0.0207,
        "meta_ra_of_asc_node": 157.1852,
        "meta_arg_of_pericenter": 153.9082,
        "meta_mean_anomaly": 339.8205,
        "meta_ephemeris_type": 0,
        "meta_classification_type": "U",
        "meta_norad_cat_id": 51850,
        "meta_element_set_no": 999,
        "meta_rev_at_epoch": 471,
        "meta_bstar": 0,
        "meta_mean_motion_dot": 1.05e-06,
        "meta_mean_motion_ddot": 0,
        "tle_line1": "1 51850U 22021A   25345.96388091  .00000105  00000+0  00000+0 0  9993",
        "tle_line2": "2 51850   0.0207 157.1852 0000687 153.9082 339.8205  1.00272382  4715"
      },
      "geometry": {
        "type": "Point",
        "coordinates": [
          31.061695168082803,
          0.0018544482300361204
        ]
      }
    },
    {
      "type": "Feature",
      "properties": {
        "norad_id": 54234,
        "name": "NOAA 21 (JPSS-2)",
        "group": "weather",
        "lat": -44.48814879432707,
        "lon": -68.74681140625222,
        "alt_km": 833.4494075377061,
        "timestamp": "2025-12-12T05:47:28.414862+00:00",
        "meta_object_name": "NOAA 21 (JPSS-2)",
        "meta_object_id": "2022-150A",
        "meta_epoch": "2025-12-11T23:14:12.718464",
        "meta_mean_motion": 14.19523982,
        "meta_eccentricity": 0.0002247,
        "meta_inclination": 98.7461,
        "meta_ra_of_asc_node": 282.2861,
        "meta_arg_of_pericenter": 39.6376,
        "meta_mean_anomaly": 320.4964,
        "meta_ephemeris_type": 0,
        "meta_classification_type": "U",
        "meta_norad_cat_id": 54234,
        "meta_element_set_no": 999,
        "meta_rev_at_epoch": 15998,
        "meta_bstar": 0.00010311933,
        "meta_mean_motion_dot": 1.73e-06,
        "meta_mean_motion_ddot": 0,
        "tle_line1": "1 54234U 22150A   25345.96820276  .00000173  00000+0  10312-3 0  9997",
        "tle_line2": "2 54234  98.7461 282.2861 0002247  39.6376 320.4964 14.19523982159987"
      },
      "geometry": {
        "type": "Point",
        "coordinates": [
          -68.74681140625222,
          -44.48814879432707
        ]
      }
    },
    {
      "type": "Feature",
      "properties": {
        "norad_id": 54743,
        "name": "METEOSAT-12 (MTG-I1)",
        "group": "weather",
        "lat": 0.39698573470843396,
        "lon": 167.78700477412718,
        "alt_km": 35787.17601871756,
        "timestamp": "2025-12-12T05:47:28.414876+00:00",
        "meta_object_name": "METEOSAT-12 (MTG-I1)",
        "meta_object_id": "2022-170C",
        "meta_epoch": "2025-12-11T22:04:10.886016",
        "meta_mean_motion": 1.0026878,
        "meta_eccentricity": 0.00017645,
        "meta_inclination": 0.6862,
        "meta_ra_of_asc_node": 23.4836,
        "meta_arg_of_pericenter": 236.7439,
        "meta_mean_anomaly": 151.4457,
        "meta_ephemeris_type": 0,
        "meta_classification_type": "U",
        "meta_norad_cat_id": 54743,
        "meta_element_set_no": 999,
        "meta_rev_at_epoch": 1110,
        "meta_bstar": 0,
        "meta_mean_motion_dot": 1e-08,
        "meta_mean_motion_ddot": 0,
        "tle_line1": "1 54743U 22170C   25345.91957044  .00000001  00000+0  00000+0 0  9992",
        "tle_line2": "2 54743   0.6862  23.4836 0001764 236.7439 151.4457  1.00268780 11107"
      },
      "geometry": {
        "type": "Point",
        "coordinates": [
          167.78700477412718,
          0.39698573470843396
        ]
      }
    }
  ]
}